#aV2021  2  1  0  0  0.00000000     288 DD+AD WGS84 FIT  NGA
## 2143  86400.00000000   300.00000000 59246 0.0000000000000
+   32     1  2  3  4  5  6  7  8  9 10 11 12 13 14 15 16 17
+         18 19 20 21 22 23 24 25 26 27 28 29 30 31 32  0  0
+          0  0  0  0  0  0  0  0  0  0  0  0  0  0  0  0  0
+          0  0  0  0  0  0  0  0  0  0  0  0  0  0  0  0  0
+          0  0  0  0  0  0  0  0  0  0  0  0  0  0  0  0  0
++         2  2  2  2  2  2  2  2  2  2  2  2  2  2  2  2  2
++         2  2  2  2  2  2  2  2  2  2  2  2  2  2  2  0  0
++         0  0  0  0  0  0  0  0  0  0  0  0  0  0  0  0  0
++         0  0  0  0  0  0  0  0  0  0  0  0  0  0  0  0  0
++         0  0  0  0  0  0  0  0  0  0  0  0  0  0  0  0  0
%c cc cc ccc ccc cccc cccc cccc cccc ccccc ccccc ccccc ccccc
%c cc cc ccc ccc cccc cccc cccc cccc ccccc ccccc ccccc ccccc
%f  0.0000000  0.000000000  0.00000000000  0.000000000000000
%f  0.0000000  0.000000000  0.00000000000  0.000000000000000
%i    0    0    0    0      0      0      0      0         0
%i    0    0    0    0      0      0      0      0         0
/*      NGA, ST. LOUIS,MO.                                  
/*   EPHEMERIS COMPUTED FROM 2 DAYS OF DATA                 
/*   EPOCHA v5 SMOOTHER                                     
/*   G2139 IERS2010 SATAF SATAPC                            
*  2021  2  1 17 40  0.00000000
P  1 -17124.445840 -13822.137439 -15354.795495    769.591972                    
V  1  18768.390590   2447.412641 -23176.042485     -0.072073                    
P  2  -6893.654726  14524.797613  21806.154335   -572.351602                    
V  2 -25921.963364  -3421.642149  -6085.863431     -0.040487                    
P  3 -13132.043469 -21863.249336   7524.884403    -71.670723                    
V  3   -955.932896  -9865.585529 -29912.471997     -0.099899                    
P  4  -7522.374712 -13884.601337  21351.941799   -177.163529                    
V  4  18764.897496 -19579.534344  -6172.704148     -0.027836                    
P  5   1775.924825  24318.689503  10157.536203    -32.545389                    
V  5  -7421.136079 -11261.445894  28024.166101     -0.010087                    
P  6 -20180.116735   6976.319572  15895.124456     -3.858230                    
V  6 -19381.607592  -5127.439237 -22398.363301      0.007291                    
P  7 -25849.924231  -6868.797563   2407.844002     43.385334                    
V  7   3085.624503  -2095.803081  31041.881522      0.138035                    
P  8  -1270.810656 -18648.713650 -18746.575429     -8.730996                    
V  8  16409.440001 -17437.639160  16519.504857     -0.013179                    
P  9 -16796.025222  -2420.780766  20373.555541   -318.759686                    
V  9  15846.405293 -20679.375922  10552.407763     -0.037603                    
P 10  14345.585026  -4421.239809 -21807.641238    -52.180443                    
V 10   9355.354774  26305.605392    557.408629     -0.082998                    
P 11  -8166.959912 -14521.913223 -21105.674261    -36.616580                    
V 11  24671.930859  -8263.845639  -4312.849881      0.106266                    
P 12   9339.681977  24629.517256   3750.841656      4.833200                    
V 12   -825.121665   5448.671050 -31501.798259     -0.052659                    
P 13  -9813.398677  20921.059757 -13120.894742     92.393739                    
V 13 -13680.862632   9415.780371  25628.875743      0.042355                    
P 14 -15187.362735   2328.769185 -21675.032696     93.109081                    
V 14  -7677.228303 -26414.292748   2535.195079      0.039850                    
P 15   4342.582106  18525.571043 -18744.324487   -172.324560                    
V 15 -14731.766280  18174.529645  15193.770017      0.025846                    
P 16   1864.611969 -23653.183614  11205.470587   -273.745507                    
V 16   5961.247330  13690.616475  27789.793551     -0.056312                    
P 17 -21081.868654  12939.714324  -9225.670881    387.693576                    
V 17   7106.467971 -10256.129682 -29267.598194      0.048109                    
P 18  26120.377844   4907.992136   -887.929895    345.051291                    
V 18    559.530067   2766.178788  31816.412568      0.021746                    
P 19 -20343.965317  16845.698453  -2556.072224    -44.147436                    
V 19    595.616213  -3596.108678 -32049.442293      0.050190                    
P 20  18546.881013   7732.168158 -17556.010644    524.894565                    
V 20   8533.989883  20534.074209  17847.144710     -0.001789                    
P 21  -9999.602587 -14737.768777 -19104.040203     91.921949                    
V 21  25714.969199   1676.512490 -13802.454525      0.032726                    
P 22 -10344.021582 -24524.276370  -1180.272983   -687.493778                    
V 22   3929.347570     93.775820 -30987.591036      0.071194                    
P 23  16976.530363   7258.688153 -19130.439606    117.812873                    
V 23   7376.307761  23108.433624  15294.747968      0.007585                    
P 24  12936.761725  15005.405826 -18104.835573      2.899001                    
V 24 -22498.491082   -997.614868 -16736.621658     -0.004500                    
P 25  16207.008676  14769.277635  14928.175760     71.805444                    
V 25   4595.908723  18833.579343 -22954.817191      0.077466                    
P 26   8191.302203 -16570.608007  18929.073957     38.639458                    
V 26  10571.475116  21931.613198  14848.892002      0.055764                    
P 27  10457.790798 -22253.278742  -9710.531032    -67.854265                    
V 27   9701.939303  -7753.103176  29026.834586     -0.075569                    
P 28 -13654.042044   5635.361636 -21521.929214    621.600306                    
V 28  -7040.733645 -27757.342155  -2550.627925     -0.053010                    
P 29  15870.059893   3734.773800  20937.690091   -286.942352                    
V 29 -18272.947650  19338.910419  10342.063977     -0.072224                    
P 30 -25008.583428   1412.655948  -9116.468448   -378.160086                    
V 30 -10692.351118  -5469.877744  28119.162055     -0.058956                    
P 31  18621.302809  -8378.613480  17152.128116    -97.483361                    
V 31  20946.459629   6116.558517 -19203.062529     -0.022900                    
P 32  20353.888217 -14358.948083  -8880.406644     17.078605                    
V 32  -5250.476052  10575.698305 -28992.904204      0.016079                    
EOF
